OBJECT_NAME,OBJECT_ID,EPOCH,MEAN_MOTION,ECCENTRICITY,INCLINATION,RA_OF_ASC_NODE,ARG_OF_PERICENTER,MEAN_ANOMALY,EPHEMERIS_TYPE,CLASSIFICATION_TYPE,NORAD_CAT_ID,ELEMENT_SET_NO,REV_AT_EPOCH,BSTAR,MEAN_MOTION_DOT,MEAN_MOTION_DDOT
GONETS-M 15,2019-096B,2026-07-23T20:45:45.516960,12.42882891,.0016262,82.5235,62.3645,94.5917,265.7021,0,U,44906,999,29820,-.55975E-3,-.67E-6,0
GONETS-M 16,2019-096C,2026-07-23T21:22:49.974816,12.42892392,.0011372,82.5181,61.2837,133.2732,226.9298,0,U,44907,999,29819,-.50038E-3,-.59E-6,0
JILIN-1 KUANFU 01,2020-003A,2026-07-23T20:17:00.803616,15.10902854,.0010119,97.5012,278.0858,167.1063,193.0428,0,U,45016,999,36086,.15965E-3,.2598E-4,0
XINGYUN-2 01,2020-028A,2026-07-23T20:59:25.098720,15.11941622,.0011001,97.4887,196.5540,79.7307,280.5164,0,U,45602,999,34038,.13087E-3,.2182E-4,0
XINGYUN-2 02,2020-028B,2026-07-23T20:38:11.679360,15.11663756,.0012241,97.5089,210.2109,137.8268,222.3906,0,U,45603,999,34037,.89429E-4,.1459E-4,0
HAIYANG-1D,2020-036A,2026-07-23T19:26:04.864128,14.34184086,.0003828,98.4554,145.6944,54.2601,305.8940,0,U,45721,999,32022,.71582E-4,.158E-5,0
M2 PATHFINDER,2020-037E,2026-07-23T02:07:37.786656,15.04815314,.00122038,97.8144,35.7270,37.2846,322.9225,0,U,45727,999,33089,.17405258E-3,.2397E-4,0
GAOFEN DUOMO (GFDM),2020-042A,2026-07-23T20:40:04.415808,14.76810297,.0009969,97.7726,263.4084,323.8524,36.2012,0,U,45856,999,32642,.11401E-3,.751E-5,0
ZIYUAN 3-03 (ZY 3-03),2020-051A,2026-07-23T21:16:57.306432,15.21248293,.0003445,97.5359,271.9115,203.1860,156.9221,0,U,45939,999,33292,.13488E-3,.2942E-4,0
NEMO-HD,2020-061F,2026-07-23T20:29:48.899616,15.45282527,.0001156,97.1901,266.4491,120.3557,239.7806,0,U,46277,999,32764,.2478E-3,.11712E-3,0
3CAT-5A,2020-061W,2026-07-23T14:26:00.420864,15.47152222,.000177,97.2379,267.4727,61.9669,298.1760,0,U,46292,999,32665,.33331E-3,.1684E-3,0
3CAT-5B,2020-061X,2026-07-23T03:55:39.270144,15.48610793,.0001832,97.2368,268.0914,55.0672,305.0751,0,U,46293,999,32662,.37209E-3,.19794E-3,0
NAPA-1,2020-061BA,2026-07-23T20:41:23.991936,15.73158429,.0002565,97.2428,280.3790,166.4134,193.7200,0,U,46320,999,32749,.74881E-3,.103514E-2,0
JILIN-1 GAOFEN 3E,2020-065D,2026-07-23T20:05:36.627936,15.68280995,.0008463,97.2206,258.4084,41.3974,318.7927,0,U,46457,999,32549,.64491E-3,.72632E-3,0
JILIN-1 GAOFEN 3F,2020-065E,2026-07-23T20:53:21.791040,15.64812414,.0009845,97.2164,255.5838,26.1296,334.0458,0,U,46458,999,32543,.6526E-3,.63925E-3,0
JILIN-1 GAOFEN 3G,2020-065F,2026-07-23T20:57:27.593856,15.78792939,.0006801,97.2209,263.0942,236.8055,123.2561,0,U,46459,999,32571,.7897E-3,.140333E-2,0
JILIN-1 GAOFEN 3H,2020-065G,2026-07-23T18:03:50.421888,15.73662482,.0007322,97.2165,259.0333,177.4861,182.6442,0,U,46460,999,32562,.74422E-3,.105268E-2,0
HAIYANG-2C,2020-066A,2026-07-23T19:39:40.042944,13.83373968,.0007181,65.9968,124.0800,237.3866,122.6510,0,U,46469,999,29456,.11178E-3,.42E-6,0
HJ-2A,2020-067A,2026-07-23T19:51:13.823712,14.76555042,.0004821,97.8814,282.3314,132.9814,227.1800,0,U,46478,999,31366,.40905E-4,.235E-5,0
HJ-2B,2020-067B,2026-07-23T20:44:08.334240,14.76519579,.0002182,97.8879,283.4179,98.4662,261.6796,0,U,46479,999,31367,.14442E-3,.957E-5,0
GONETS-M 17,2020-068A,2026-07-23T20:03:42.414912,12.42874165,.0021517,82.5013,324.7041,317.0577,42.8822,0,U,46486,999,26371,-.35949E-3,-.4E-6,0
GONETS-M 18,2020-068B,2026-07-23T19:11:21.001632,12.42875464,.0018778,82.4967,323.8307,313.5502,46.4017,0,U,46487,999,26369,.46619E-3,.74E-6,0
GONETS-M 19,2020-068C,2026-07-23T20:31:07.736160,12.42893017,.0012664,82.4991,324.2534,330.3018,29.7342,0,U,46488,999,26380,-.24295E-3,-.24E-6,0
DEKART,2020-068H,2026-07-23T20:13:01.752960,15.38105050,.0010122,97.8751,216.7592,145.0595,215.1315,0,U,46493,999,32140,.36798E-3,.13743E-3,0
NORBI,2020-068J,2026-07-23T20:16:05.666592,15.49937364,.0008659,97.8621,224.0815,119.2322,240.9795,0,U,46494,999,32188,.5155E-3,.28829E-3,0
SALSAT,2020-068K,2026-07-23T10:36:40.859712,15.30258663,.0010091,97.8868,209.7289,164.5021,195.6529,0,U,46495,999,32090,.25456E-3,.7378E-4,0
ICEYE-X6,2020-068M,2026-07-23T20:01:51.142944,15.04699121,.0006338,98.0995,200.2660,343.0116,17.0895,0,U,46497,999,31874,.1799E-3,.2465E-4,0
NETSAT-4,2020-068U,2026-07-23T00:26:47.663808,15.44960693,.00057101,97.8610,215.1699,167.1135,193.0259,0,U,46504,999,32130,.44655502E-3,.20969E-3,0
NETSAT-3,2020-068V,2026-07-23T19:54:36.278784,15.43845567,.0004922,97.8664,214.2198,178.9294,181.1964,0,U,46505,999,32133,.40462E-3,.18276E-3,0
