{"epoch":1784848540,"count":18314,"objects":[{"id":"44906","name":"GONETS M 15 (M25)","type":"PAYLOAD","l1":"1 44906U 19096B   26204.86511015 -.00000067  00000-0 -55975-3 0  9998","l2":"2 44906  82.5235  62.3645 0016262  94.5917 265.7021 12.42882891298207"},{"id":"44907","name":"GONETS M 16 (M26)","type":"PAYLOAD","l1":"1 44907U 19096C   26204.89085619 -.00000059  00000-0 -50038-3 0  9994","l2":"2 44907  82.5181  61.2837 0011372 133.2732 226.9298 12.42892392298192"},{"id":"45016","name":"JILIN-01 KUANFU 01","type":"PAYLOAD","l1":"1 45016U 20003A   26204.84514819  .00002598  00000-0  15965-3 0  9998","l2":"2 45016  97.5012 278.0858 0010119 167.1063 193.0428 15.10902854360861"},{"id":"45602","name":"XINGYUN-2 01","type":"PAYLOAD","l1":"1 45602U 20028A   26204.87459605  .00002182  00000-0  13087-3 0  9992","l2":"2 45602  97.4887 196.5540 0011001  79.7307 280.5164 15.11941622340384"},{"id":"45603","name":"XINGYUN-2 02","type":"PAYLOAD","l1":"1 45603U 20028B   26204.85985740  .00001459  00000-0  89429-4 0  9995","l2":"2 45603  97.5089 210.2109 0012241 137.8268 222.3906 15.11663756340370"},{"id":"45721","name":"HAIYANG 1D","type":"PAYLOAD","l1":"1 45721U 20036A   26204.80977852  .00000158  00000-0  71582-4 0  9991","l2":"2 45721  98.4554 145.6944 0003828  54.2601 305.8940 14.34184086320225"},{"id":"45727","name":"M2 PATHFINDER","type":"PAYLOAD","l1":"1 45727U 20037E   26204.08863179  .00002397  00000-0  17405-3 0  9994","l2":"2 45727  97.8144  35.7270 0012204  37.2846 322.9225 15.04815314330893"},{"id":"45856","name":"GAOFEN DUOMO (GFDM)","type":"PAYLOAD","l1":"1 45856U 20042A   26204.86116222  .00000751  00000-0  11401-3 0  9991","l2":"2 45856  97.7726 263.4084 0009969 323.8524  36.2012 14.76810297326421"},{"id":"45939","name":"ZINYUAN-3","type":"PAYLOAD","l1":"1 45939U 20051A   26204.88677438  .00002942  00000-0  13488-3 0  9997","l2":"2 45939  97.5359 271.9115 0003445 203.1860 156.9221 15.21248293332924"},{"id":"46277","name":"NEMO-HD","type":"PAYLOAD","l1":"1 46277U 20061F   26204.85403819  .00011712  00000-0  24780-3 0  9993","l2":"2 46277  97.1901 266.4491 0001156 120.3557 239.7806 15.45282527327641"},{"id":"46292","name":"3CAT-5/A (TYVAK-0161)","type":"PAYLOAD","l1":"1 46292U 20061W   26204.60139376  .00016840  00000-0  33331-3 0  9996","l2":"2 46292  97.2379 267.4727 0001770  61.9669 298.1760 15.47152222326655"},{"id":"46293","name":"3CAT-5/B (TYVAK-0162)","type":"PAYLOAD","l1":"1 46293U 20061X   26204.16364896  .00019794  00000-0  37209-3 0  9994","l2":"2 46293  97.2368 268.0914 0001832  55.0672 305.0751 15.48610793326624"},{"id":"46320","name":"NAPA-1","type":"PAYLOAD","l1":"1 46320U 20061BA  26204.86208324  .00103514  00000-0  74881-3 0  9996","l2":"2 46320  97.2428 280.3790 0002565 166.4134 193.7200 15.73158429327493"},{"id":"46457","name":"JILIN-01 GAOFEN 3E","type":"PAYLOAD","l1":"1 46457U 20065D   26204.83722949  .00072632  00000-0  64491-3 0  9994","l2":"2 46457  97.2206 258.4084 0008463  41.3974 318.7927 15.68280995325497"},{"id":"46458","name":"JILIN-01 GAOFEN 3F","type":"PAYLOAD","l1":"1 46458U 20065E   26204.87039110  .00063925  00000-0  65260-3 0  9990","l2":"2 46458  97.2164 255.5838 0009845  26.1296 334.0458 15.64812414325436"},{"id":"46459","name":"JILIN-01 GAOFEN 3G","type":"PAYLOAD","l1":"1 46459U 20065F   26204.87323604  .00140333  00000-0  78970-3 0  9996","l2":"2 46459  97.2209 263.0942 0006801 236.8055 123.2561 15.78792939325717"},{"id":"46460","name":"JILIN-01 GAOFEN 3H","type":"PAYLOAD","l1":"1 46460U 20065G   26204.75266692  .00105268  00000-0  74422-3 0  9994","l2":"2 46460  97.2165 259.0333 0007322 177.4861 182.6442 15.73662482325624"},{"id":"46469","name":"HAIYANG 2C","type":"PAYLOAD","l1":"1 46469U 20066A   26204.81921346  .00000042  00000-0  11178-3 0  9998","l2":"2 46469  65.9968 124.0800 0007181 237.3866 122.6510 13.83373968294565"},{"id":"46478","name":"HJ-2A","type":"PAYLOAD","l1":"1 46478U 20067A   26204.82724333  .00000235  00000-0  40905-4 0  9992","l2":"2 46478  97.8814 282.3314 0004821 132.9814 227.1800 14.76555042313662"},{"id":"46479","name":"HJ-2B","type":"PAYLOAD","l1":"1 46479U 20067B   26204.86398535  .00000957  00000-0  14442-3 0  9995","l2":"2 46479  97.8879 283.4179 0002182  98.4662 261.6796 14.76519579313673"},{"id":"46486","name":"GONETS M 17","type":"PAYLOAD","l1":"1 46486U 20068A   26204.83590758 -.00000040  00000-0 -35949-3 0  9992","l2":"2 46486  82.5013 324.7041 0021517 317.0577  42.8822 12.42874165263711"},{"id":"46487","name":"GONETS M 18","type":"PAYLOAD","l1":"1 46487U 20068B   26204.79954863  .00000074  00000-0  46619-3 0  9990","l2":"2 46487  82.4967 323.8307 0018778 313.5502  46.4017 12.42875464263694"},{"id":"46488","name":"GONETS M 19","type":"PAYLOAD","l1":"1 46488U 20068C   26204.85495065 -.00000024  00000-0 -24295-3 0  9995","l2":"2 46488  82.4991 324.2534 0012664 330.3018  29.7342 12.42893017263808"},{"id":"46493","name":"DEKART","type":"PAYLOAD","l1":"1 46493U 20068H   26204.84238140  .00013743  00000-0  36798-3 0  9990","l2":"2 46493  97.8751 216.7592 0010122 145.0595 215.1315 15.38105050321408"},{"id":"46494","name":"NORBI","type":"PAYLOAD","l1":"1 46494U 20068J   26204.84451003  .00028829  00000-0  51550-3 0  9990","l2":"2 46494  97.8621 224.0815 0008659 119.2322 240.9795 15.49937364321881"},{"id":"46495","name":"SALSAT","type":"PAYLOAD","l1":"1 46495U 20068K   26204.44213958  .00007378  00000-0  25456-3 0  9994","l2":"2 46495  97.8868 209.7289 0010091 164.5021 195.6529 15.30258663320903"},{"id":"46497","name":"ICEYE-X6","type":"PAYLOAD","l1":"1 46497U 20068M   26204.83461971  .00002465  00000-0  17990-3 0  9995","l2":"2 46497  98.0995 200.2660 0006338 343.0116  17.0895 15.04699121318747"},{"id":"46504","name":"NETSAT-4","type":"PAYLOAD","l1":"1 46504U 20068U   26204.01860722  .00020969  00000-0  44656-3 0  9999","l2":"2 46504  97.8610 215.1699 0005710 167.1135 193.0259 15.44960693321307"},{"id":"46505","name":"NETSAT-3","type":"PAYLOAD","l1":"1 46505U 20068V   26204.82958656  .00018276  00000-0  40462-3 0  9992","l2":"2 46505  97.8664 214.2198 0004922 178.9294 181.1964 15.43845567321336"}]}